GLOBALSTAR M035         
1 25851U 99037A   25112.57817696 -.00000029  00000+0  12961-2 0  9991
2 25851  51.9925 178.9801 0013992 249.8584 260.0759 11.04538128 90115
GLOBALSTAR M032         
1 25852U 99037B   25112.05821264 -.00000129  00000+0 -20117-2 0  9995
2 25852  52.0001   9.2064 0012649  72.7490 287.4693 11.19062149128503
GLOBALSTAR M051         
1 25853U 99037C   25112.57167482 -.00000077  00000+0 -12701-3 0  9991
2 25853  51.9775 175.0588 0000980 135.9668 224.1221 11.42204669126039
GLOBALSTAR M030         
1 25854U 99037D   25111.92313408 -.00000035  00000+0  83855-3 0  9992
2 25854  51.9912 346.3074 0003132 319.4119  40.6464 11.55105345143548
GLOBALSTAR M048         
1 25872U 99041A   25112.32337814 -.00000055  00000+0  39746-3 0  9991
2 25872  51.9338 108.5285 0013101  88.1263  17.2014 11.33856362118641
GLOBALSTAR M026         
1 25873U 99041B   25111.90795273  .00000061  00000+0  45887-2 0  9990
2 25873  52.0022 299.0277 0002180 150.5152 359.1333 11.06837357142458
GLOBALSTAR M043         
1 25874U 99041C   25112.41700950 -.00000069  00000+0 -12206-4 0  9997
2 25874  51.9392 213.7313 0013761 214.9135 219.7702 11.25692003116599
GLOBALSTAR M028         
1 25875U 99041D   25112.04611356 -.00000080  00000+0  13091-3 0  9992
2 25875  51.9659   0.4678 0062865 310.1820  49.3548 12.50581193183157
